STARLINK-1328_new
1 15576C 20025AX  21326.16822613  .00006889  00000-0  46159-3 0  3262
2 15576  53.0536 277.9866 0001835  64.2289  20.9302 15.06388109    12
STARLINK-1328_old
1 25576C 20025AX  21325.11167737  .00003386  00000-0  22683-3 0  3259
2 25576  53.0533 282.7297 0001869  64.8730  47.3643 15.06403327    16
